NORAD_CAT_ID,OBJECT_NAME,OBJECT_TYPE,EPOCH,MEAN_MOTION,ECCENTRICITY,INCLINATION,RA_OF_ASC_NODE,ARG_OF_PERICENTER,MEAN_ANOMALY,BSTAR,MEAN_MOTION_DOT,MEAN_MOTION_DDOT,TLE_LINE0,TLE_LINE1,TLE_LINE2,SEMIMAJOR_AXIS,PERIOD,APOGEE,PERIGEE,DECAYED
52586.0,STARLINK-3910,PAYLOAD,2022-12-18 04:23:58,15.08851213,0.0002474,53.2198,5.1585,35.3871,324.7285,0.00012955,1.775e-05,0.0,0 STARLINK-3910,1 52586U 22051BC  22352.18331415  .00001775  00000-0  12955-3 0  9991,2 52586  53.2198   5.1585 0002474  35.3871 324.7285 15.08851213 33892,6917.846,95.437,541.423,538.0,0.0
52586.0,STARLINK-3910,PAYLOAD,2022-12-18 07:34:44,15.08852957,0.000249,53.22,4.5638,35.4868,324.6289,0.00014695,2.052e-05,0.0,0 STARLINK-3910,1 52586U 22051BC  22352.31579191  .00002052  00000-0  14695-3 0  9993,2 52586  53.2200   4.5638 0002490  35.4868 324.6289 15.08852957 33847,6917.840999999999,95.437,541.428,537.9830000000002,0.0
52586.0,STARLINK-3910,PAYLOAD,2022-12-18 12:20:53,15.08857615,0.0002522,53.2202,3.672,35.6739,324.4421,0.00016881,2.401e-05,0.0,0 STARLINK-3910,1 52586U 22051BC  22352.51450695  .00002401  00000-0  16881-3 0  9999,2 52586  53.2202   3.6720 0002522  35.6739 324.4421 15.08857615 33871,6917.8269999999975,95.436,541.436,537.947,0.0
52586.0,STARLINK-3910,PAYLOAD,2022-12-19 04:14:45,15.08846585,0.0002491,53.2199,0.6992,36.3874,323.7287,0.00017156,2.444e-05,0.0,0 STARLINK-3910,1 52586U 22051BC  22353.17691315  .00002444  00000-0  17156-3 0  9991,2 52586  53.2199   0.6992 0002491  36.3874 323.7287 15.08846585 34043,6917.86,95.437,541.4490000000002,538.002,0.0
52586.0,STARLINK-3910,PAYLOAD,2022-12-19 07:25:31,15.08851166,0.0002524,53.22,0.1046,35.8581,324.258,0.00021498,3.136e-05,0.0,0 STARLINK-3910,1 52586U 22051BC  22353.30938961  .00003136  00000-0  21498-3 0  9990,2 52586  53.2200   0.1046 0002524  35.8581 324.2580 15.08851166 33993,6917.846,95.437,541.457,537.965,0.0
52586.0,STARLINK-3910,PAYLOAD,2022-12-20 12:02:29,15.08830535,0.0002509,53.2195,354.7528,41.7488,318.3695,-0.00018677,-3.259e-05,0.0,0 STARLINK-3910,1 52586U 22051BC  22354.50172862 -.00003259  00000-0 -18677-3 0  9996,2 52586  53.2195 354.7528 0002509  41.7488 318.3695 15.08830535 34241,6917.909000000002,95.438,541.51,538.039,0.0
52586.0,STARLINK-3910,PAYLOAD,2022-12-21 10:17:53,15.08845322,0.0002256,53.2174,350.5908,49.8363,310.2827,0.00092767,0.00014509,0.0,0 STARLINK-3910,1 52586U 22051BC  22355.42909566  .00014509  00000-0  92767-3 0  9997,2 52586  53.2174 350.5908 0002256  49.8363 310.2827 15.08845322 34387,6917.864000000001,95.437,541.29,538.168,0.0
52586.0,STARLINK-3910,PAYLOAD,2022-12-22 11:44:03,15.0884775,0.0002544,53.2167,345.8323,50.2987,309.823,0.00011942,1.613e-05,0.0,0 STARLINK-3910,1 52586U 22051BC  22356.48893064  .00001613  00000-0  11942-3 0  9997,2 52586  53.2167 345.8323 0002544  50.2987 309.8230 15.08847750 34542,6917.857,95.437,541.482,537.962,0.0
52586.0,STARLINK-3910,PAYLOAD,2022-12-22 16:30:12,15.08845816,0.0002145,53.2163,344.9389,56.1928,303.9268,3.7493e-05,3.09e-06,0.0,0 STARLINK-3910,1 52586U 22051BC  22356.68764890  .00000309  00000-0  37493-4 0  9994,2 52586  53.2163 344.9389 0002145  56.1928 303.9268 15.08845816 34500,6917.863,95.437,541.211,538.244,0.0
52586.0,STARLINK-3910,PAYLOAD,2022-12-23 09:59:26,15.08861937,0.0002016,53.2153,341.6687,52.2266,307.8909,0.00060661,9.385e-05,0.0,0 STARLINK-3910,1 52586U 22051BC  22357.41628203  .00009385  00000-0  60661-3 0  9998,2 52586  53.2153 341.6687 0002016  52.2266 307.8909 15.08861937 34612,6917.813,95.436,541.073,538.284,0.0
52586.0,STARLINK-3910,PAYLOAD,2022-12-24 08:14:51,15.08833223,8.759999999999999e-05,53.2145,337.5043,58.0607,302.047,8.5915e-05,1.0800000000000003e-05,0.0,0 STARLINK-3910,1 52586U 22051BC  22358.34365021  .00001080  00000-0  85915-4 0  9991,2 52586  53.2145 337.5043 0000876  58.0607 302.0470 15.08833223 34828,6917.901,95.438,540.372,539.16,0.0
52586.0,STARLINK-3910,PAYLOAD,2022-12-24 16:11:47,15.08823634,0.0001612,53.2153,336.0195,50.3947,309.7187,-9.3247e-05,-1.771e-05,0.0,0 STARLINK-3910,1 52586U 22051BC  22358.67485775 -.00001771  00000-0 -93247-4 0  9992,2 52586  53.2153 336.0195 0001612  50.3947 309.7187 15.08823634 34879,6917.93,95.439,540.911,538.68,0.0
52586.0,STARLINK-3910,PAYLOAD,2022-12-25 08:05:39,15.08843521,0.0001495,53.2158,333.0452,36.5962,323.5132,0.00093539,0.00014632,0.0,0 STARLINK-3910,1 52586U 22051BC  22359.33725892  .00014632  00000-0  93539-3 0  9994,2 52586  53.2158 333.0452 0001495  36.5962 323.5132 15.08843521 34971,6917.87,95.437,540.769,538.7,0.0
52586.0,STARLINK-3910,PAYLOAD,2022-12-25 16:02:34,15.08850585,0.0001625,53.2144,331.55800000000005,41.9389,318.1727,0.00073896,0.00011496,0.0,0 STARLINK-3910,1 52586U 22051BC  22359.66845800  .00011496  00000-0  73896-3 0  9991,2 52586  53.2144 331.5580 0001625  41.9389 318.1727 15.08850585 34955,6917.848000000001,95.437,540.837,538.589,0.0
52586.0,STARLINK-3910,PAYLOAD,2022-12-26 07:56:25,15.08853297,0.0001743,53.2148,328.5867,39.5524,320.5595,0.00046164,7.069e-05,0.0,0 STARLINK-3910,1 52586U 22051BC  22360.33085540  .00007069  00000-0  46164-3 0  9993,2 52586  53.2148 328.5867 0001743  39.5524 320.5595 15.08853297 35053,6917.84,95.437,540.911,538.499,0.0
52586.0,STARLINK-3910,PAYLOAD,2022-12-27 04:36:26,15.08849501,0.0001925,53.2172,324.7185,52.4159,307.7008,0.0005245,8.071e-05,0.0,0 STARLINK-3910,1 52586U 22051BC  22361.19197500  .00008071  00000-0  52450-3 0  9997,2 52586  53.2172 324.7185 0001925  52.4159 307.7008 15.08849501 35252,6917.851,95.437,541.048,538.385,0.0
52586.0,STARLINK-3910,PAYLOAD,2022-12-27 07:47:12,15.08847823,0.0001747,53.2163,324.1241,45.9898,314.1238,0.00024479,3.611e-05,0.0,0 STARLINK-3910,1 52586U 22051BC  22361.32445384  .00003611  00000-0  24479-3 0  9993,2 52586  53.2163 324.1241 0001747  45.9898 314.1238 15.08847823 35205,6917.856,95.437,540.93,538.513,0.0
52586.0,STARLINK-3910,PAYLOAD,2022-12-27 14:08:44,15.08863224,0.0001706,53.2166,322.9349,47.9037,312.21,0.00042417,6.473e-05,0.0,0 STARLINK-3910,1 52586U 22051BC  22361.58940645  .00006473  00000-0  42417-3 0  9992,2 52586  53.2166 322.9349 0001706  47.9037 312.2100 15.08863224 35249,6917.809,95.436,540.855,538.494,0.0
52586.0,STARLINK-3910,PAYLOAD,2022-12-28 06:02:35,15.08857101,0.0001729,53.2162,319.9619,53.747,306.3682,0.00036542,5.535e-05,0.0,0 STARLINK-3910,1 52586U 22051BC  22362.25180321  .00005535  00000-0  36542-3 0  9994,2 52586  53.2162 319.9619 0001729  53.7470 306.3682 15.08857101 35349,6917.828,95.436,540.889,538.497,0.0
52586.0,STARLINK-3910,PAYLOAD,2022-12-29 05:53:23,15.08831795,0.0001496999999999,53.2159,315.5013,48.1693,311.9427,-0.00016265,-2.875e-05,0.0,0 STARLINK-3910,1 52586U 22051BC  22363.24541219 -.00002875  00000-0 -16265-3 0  9997,2 52586  53.2159 315.5013 0001497  48.1693 311.9427 15.08831795 35566,6917.905,95.438,540.806,538.735,0.0
52586.0,STARLINK-3910,PAYLOAD,2022-12-30 05:44:11,15.08842004,0.0001595999999999,53.2138,311.0394,48.1817,311.9312,0.00053898,8.301e-05,0.0,0 STARLINK-3910,1 52586U 22051BC  22364.23902054  .00008301  00000-0  53898-3 0  9996,2 52586  53.2138 311.0394 0001596  48.1817 311.9312 15.08842004 35719,6917.874,95.437,540.8430000000002,538.635,0.0
52586.0,STARLINK-3910,PAYLOAD,2022-12-30 20:02:38,15.08872802,0.0001674,53.2142,308.3633,51.3473,308.7668,0.0012927,0.00020364,0.0,0 STARLINK-3910,1 52586U 22051BC  22364.83517343  .00020364  00000-0  12927-2 0  9995,2 52586  53.2142 308.3633 0001674  51.3473 308.7668 15.08872802 35807,6917.78,95.435,540.803,538.487,0.0
52586.0,STARLINK-3910,PAYLOAD,2022-12-31 05:34:56,15.08885523,0.0001764999999999,53.2139,306.5787,53.6367,306.4788,0.0011358,0.00017857,0.0,0 STARLINK-3910,1 52586U 22051BC  22365.23260356  .00017857  00000-0  11358-2 0  9999,2 52586  53.2139 306.5787 0001765  53.6367 306.4788 15.08885523 35791,6917.741,95.435,540.827,538.385,0.0
52586.0,STARLINK-3910,PAYLOAD,2022-12-31 13:31:52,15.08875469,0.0001871,53.214,305.0918,53.3685,306.7479,0.00053733,8.282e-05,0.0,0 STARLINK-3910,1 52586U 22051BC  22365.56379939  .00008282  00000-0  53733-3 0  9999,2 52586  53.2140 305.0918 0001871  53.3685 306.7479 15.08875469 35913,6917.772,95.435,540.931,538.3430000000002,0.0
52586.0,STARLINK-3910,PAYLOAD,2023-01-01 05:25:43,15.08835007,0.0001721999999999,53.2143,302.1179,54.5599,305.5554,-0.00043998,-7.283e-05,0.0,0 STARLINK-3910,1 52586U 22051BC  23001.22620132 -.00007283  00000-0 -43998-3 0  9998,2 52586  53.2143 302.1179 0001722  54.5599 305.5554 15.08835007 36012,6917.896,95.438,540.952,538.569,0.0
52586.0,STARLINK-3910,PAYLOAD,2023-01-01 13:22:40,15.08815973,0.0001676999999999,53.2132,300.6304,54.5401,305.5747,-0.00039873,-6.624e-05,0.0,0 STARLINK-3910,1 52586U 22051BC  23001.55741057 -.00006624  00000-0 -39873-3 0  9999,2 52586  53.2132 300.6304 0001677  54.5401 305.5747 15.08815973 36063,6917.954000000002,95.439,540.979,538.659,0.0
52586.0,STARLINK-3910,PAYLOAD,2023-01-02 02:05:46,15.08802657,0.0001754999999999,53.2139,298.2512,56.2432,303.8727,0.00021007,3.053e-05,0.0,0 STARLINK-3910,1 52586U 22051BC  23002.08734690  .00003053  00000-0  21007-3 0  9994,2 52586  53.2139 298.2512 0001755  56.2432 303.8727 15.08802657 36146,6917.995,95.44,541.0740000000002,538.645,0.0
52586.0,STARLINK-3910,PAYLOAD,2023-01-02 05:16:32,15.08818005,0.0001862,53.2146,297.6568,55.8687,304.2481,-5.8827e-05,-1.224e-05,0.0,0 STARLINK-3910,1 52586U 22051BC  23002.21982548 -.00001224  00000-0 -58827-4 0  9997,2 52586  53.2146 297.6568 0001862  55.8687 304.2481 15.08818005 36162,6917.948,95.439,541.101,538.524,0.0
52586.0,STARLINK-3910,PAYLOAD,2023-01-03 05:07:20,15.08857136,0.0001943999999999,53.2154,293.1966,57.7946,302.3235,0.0011207,0.00017601,0.0,0 STARLINK-3910,1 52586U 22051BC  23003.21342825  .00017601  00000-0  11207-2 0  9999,2 52586  53.2154 293.1966 0001944  57.7946 302.3235 15.08857136 36315,6917.828,95.436,541.038,538.3480000000002,0.0
